KUIPER-00016            
1 63732U 25088J   25354.29498567  .00001969  00000+0  28719-3 0  9997
2 63732  51.9011 102.6785 0013486 159.9967 200.1526 14.79938182 35575
KUIPER-00018            
1 63733U 25088K   25354.50999492  .00002781  00000+0  39372-3 0  9995
2 63733  51.9022  90.6829 0013428 185.2747 174.8076 14.79908715 35764
KUIPER-00019            
1 63734U 25088L   25354.57853152 -.00002037  00000+0 -23774-3 0  9990
2 63734  51.9013  88.9272 0009337 192.9980 167.0744 14.79935231 35797
KUIPER-00020            
1 63735U 25088M   25354.57482060 -.00000837  00000+0 -80470-4 0  9990
2 63735  51.9025  92.9258 0008938 175.6599 184.4442 14.79930373 35947
KUIPER-00021            
1 63736U 25088N   25354.57322087  .00004914  00000+0  67325-3 0  9994
2 63736  51.9023  93.9325 0007299 171.3715 188.7374 14.79920783 35769
KUIPER-00023            
1 63737U 25088P   25354.57213496  .00005026  00000+0  68757-3 0  9993
2 63737  51.9020  95.4026 0011898 191.9089 168.1594 14.79922219 36048
KUIPER-00024            
1 63738U 25088Q   25354.51723073  .00065285  00000+0  87713-2 0  9990
2 63738  51.8989  83.1852 0002360 156.9609 203.1459 14.78654554 36331
KUIPER-00025            
1 63739U 25088R   25354.58336806  .00045728  00000+0  60608-2 0  9996
2 63739  51.9018  91.4148 0003307 187.4398 212.3344 14.79411477  4721
